{
    "links": {
        "self": "http://www.neowsapp.com/rest/v1/neo/3445627?api_key=iIulBulltgU6a56xZRHN4H3l9WmuAYTsLGpBGhQ2"
    },
    "id": "3445627",
    "neo_reference_id": "3445627",
    "name": "(2009 CY1)",
    "designation": "2009 CY1",
    "nasa_jpl_url": "http://ssd.jpl.nasa.gov/sbdb.cgi?sstr=3445627",
    "absolute_magnitude_h": 22.9,
    "estimated_diameter": {
        "kilometers": {
            "estimated_diameter_min": 0.0699125232,
            "estimated_diameter_max": 0.1563291544
        },
        "meters": {
            "estimated_diameter_min": 69.9125232246,
            "estimated_diameter_max": 156.3291544087
        },
        "miles": {
            "estimated_diameter_min": 0.0434416145,
            "estimated_diameter_max": 0.097138403
        },
        "feet": {
            "estimated_diameter_min": 229.3718026961,
            "estimated_diameter_max": 512.8909429502
        }
    },
    "is_potentially_hazardous_asteroid": false,
    "close_approach_data": [
        {
            "close_approach_date": "2009-02-08",
            "close_approach_date_full": "2009-Feb-08 07:09",
            "epoch_date_close_approach": 1234076940000,
            "relative_velocity": {
                "kilometers_per_second": "10.2041234989",
                "kilometers_per_hour": "36734.8445960724",
                "miles_per_hour": "22825.6038547095"
            },
            "miss_distance": {
                "astronomical": "0.2470588711",
                "lunar": "96.1059008579",
                "kilometers": "36959480.881164557",
                "miles": "22965556.4925506066"
            },
            "orbiting_body": "Earth"
        }
    ],
    "orbital_data": {
        "orbit_id": "6",
        "orbit_determination_date": "2017-04-06 09:01:24",
        "first_observation_date": "2009-02-03",
        "last_observation_date": "2009-02-04",
        "data_arc_in_days": 1,
        "observations_used": 17,
        "orbit_uncertainty": "9",
        "minimum_orbit_intersection": ".246563",
        "jupiter_tisserand_invariant": "4.626",
        "epoch_osculation": "2454866.5",
        "eccentricity": ".1370040384771272",
        "semi_major_axis": "1.425742483906838",
        "inclination": "19.76555990100357",
        "ascending_node_longitude": "140.1465085565983",
        "orbital_period": "621.8133803234684",
        "perihelion_distance": "1.230410005783191",
        "perihelion_argument": "348.4557606290212",
        "aphelion_distance": "1.621074962030486",
        "perihelion_time": "2454855.989669446220",
        "mean_anomaly": "6.084975201711649",
        "mean_motion": ".5789518389146392",
        "equinox": "J2000",
        "orbit_class": {
            "orbit_class_type": "AMO",
            "orbit_class_description": "Near-Earth asteroid orbits similar to that of 1221 Amor",
            "orbit_class_range": "1.017 AU < q (perihelion) < 1.3 AU"
        }
    },
    "is_sentry_object": false
}